[{"OBJECT_NAME":"STARLINK-36891","OBJECT_ID":"2026-040K","EPOCH":"2026-03-24T20:34:20.751168","MEAN_MOTION":15.75222016,"ECCENTRICITY":0.00016722,"INCLINATION":97.2863,"RA_OF_ASC_NODE":33.061,"ARG_OF_PERICENTER":68.503,"MEAN_ANOMALY":291.6414,"EPHEMERIS_TYPE":0,"CLASSIFICATION_TYPE":"U","NORAD_CAT_ID":68024,"ELEMENT_SET_NO":999,"REV_AT_EPOCH":374,"BSTAR":0.00098065153,"MEAN_MOTION_DOT":0.00148927,"MEAN_MOTION_DDOT":0},{"OBJECT_NAME":"STARLINK-36378","OBJECT_ID":"2026-040L","EPOCH":"2026-03-24T19:00:49.848768","MEAN_MOTION":15.75199713,"ECCENTRICITY":0.0001572,"INCLINATION":97.2857,"RA_OF_ASC_NODE":32.9999,"ARG_OF_PERICENTER":68.2942,"MEAN_ANOMALY":291.8491,"EPHEMERIS_TYPE":0,"CLASSIFICATION_TYPE":"U","NORAD_CAT_ID":68025,"ELEMENT_SET_NO":999,"REV_AT_EPOCH":373,"BSTAR":0.00036292647,"MEAN_MOTION_DOT":0.00054372,"MEAN_MOTION_DDOT":0},{"OBJECT_NAME":"STARLINK-36884","OBJECT_ID":"2026-040M","EPOCH":"2026-03-24T22:00:00.999936","MEAN_MOTION":15.75181756,"ECCENTRICITY":0.00016582,"INCLINATION":97.2859,"RA_OF_ASC_NODE":33.1285,"ARG_OF_PERICENTER":65.8365,"MEAN_ANOMALY":277.4312,"EPHEMERIS_TYPE":0,"CLASSIFICATION_TYPE":"U","NORAD_CAT_ID":68026,"ELEMENT_SET_NO":999,"REV_AT_EPOCH":487,"BSTAR":4.5989031e-5,"MEAN_MOTION_DOT":6.733e-5,"MEAN_MOTION_DDOT":0},{"OBJECT_NAME":"STARLINK-36940","OBJECT_ID":"2026-040N","EPOCH":"2026-03-24T14:14:11.908896","MEAN_MOTION":15.75285141,"ECCENTRICITY":0.00028455,"INCLINATION":97.2847,"RA_OF_ASC_NODE":32.8158,"ARG_OF_PERICENTER":72.3775,"MEAN_ANOMALY":287.7801,"EPHEMERIS_TYPE":0,"CLASSIFICATION_TYPE":"U","NORAD_CAT_ID":68027,"ELEMENT_SET_NO":999,"REV_AT_EPOCH":370,"BSTAR":0.0010966416,"MEAN_MOTION_DOT":0.00167392,"MEAN_MOTION_DDOT":0},{"OBJECT_NAME":"STARLINK-36253","OBJECT_ID":"2026-040P","EPOCH":"2026-03-24T22:00:00.999936","MEAN_MOTION":15.49588348,"ECCENTRICITY":0.00020556,"INCLINATION":97.2838,"RA_OF_ASC_NODE":32.7674,"ARG_OF_PERICENTER":103.0394,"MEAN_ANOMALY":107.4463,"EPHEMERIS_TYPE":0,"CLASSIFICATION_TYPE":"U","NORAD_CAT_ID":68028,"ELEMENT_SET_NO":999,"REV_AT_EPOCH":497,"BSTAR":-0.02655214,"MEAN_MOTION_DOT":-0.01322351,"MEAN_MOTION_DDOT":0},{"OBJECT_NAME":"STARLINK-36944","OBJECT_ID":"2026-040Q","EPOCH":"2026-03-24T20:31:17.566752","MEAN_MOTION":15.75236904,"ECCENTRICITY":0.00013326,"INCLINATION":97.2858,"RA_OF_ASC_NODE":33.0639,"ARG_OF_PERICENTER":123.7392,"MEAN_ANOMALY":236.4,"EPHEMERIS_TYPE":0,"CLASSIFICATION_TYPE":"U","NORAD_CAT_ID":68029,"ELEMENT_SET_NO":999,"REV_AT_EPOCH":374,"BSTAR":0.0010739613,"MEAN_MOTION_DOT":0.00163492,"MEAN_MOTION_DDOT":0},{"OBJECT_NAME":"STARLINK-36942","OBJECT_ID":"2026-040R","EPOCH":"2026-03-24T14:24:21.924864","MEAN_MOTION":15.75286028,"ECCENTRICITY":0.00025616,"INCLINATION":97.2852,"RA_OF_ASC_NODE":32.8011,"ARG_OF_PERICENTER":68.6057,"MEAN_ANOMALY":291.5481,"EPHEMERIS_TYPE":0,"CLASSIFICATION_TYPE":"U","NORAD_CAT_ID":68030,"ELEMENT_SET_NO":999,"REV_AT_EPOCH":370,"BSTAR":0.0012828537,"MEAN_MOTION_DOT":0.00196511,"MEAN_MOTION_DDOT":0},{"OBJECT_NAME":"STARLINK-36913","OBJECT_ID":"2026-040S","EPOCH":"2026-03-24T09:48:54.021312","MEAN_MOTION":15.752738,"ECCENTRICITY":0.00010438,"INCLINATION":97.2868,"RA_OF_ASC_NODE":32.6027,"ARG_OF_PERICENTER":136.424,"MEAN_ANOMALY":223.7108,"EPHEMERIS_TYPE":0,"CLASSIFICATION_TYPE":"U","NORAD_CAT_ID":68031,"ELEMENT_SET_NO":999,"REV_AT_EPOCH":367,"BSTAR":0.0016456423,"MEAN_MOTION_DOT":0.0025368,"MEAN_MOTION_DDOT":0},{"OBJECT_NAME":"STARLINK-36935","OBJECT_ID":"2026-040T","EPOCH":"2026-03-24T14:16:14.202048","MEAN_MOTION":15.75239279,"ECCENTRICITY":0.0002722,"INCLINATION":97.2842,"RA_OF_ASC_NODE":32.8109,"ARG_OF_PERICENTER":94.5695,"MEAN_ANOMALY":265.5881,"EPHEMERIS_TYPE":0,"CLASSIFICATION_TYPE":"U","NORAD_CAT_ID":68032,"ELEMENT_SET_NO":999,"REV_AT_EPOCH":370,"BSTAR":0.0015735138,"MEAN_MOTION_DOT":0.00241869,"MEAN_MOTION_DDOT":0},{"OBJECT_NAME":"STARLINK-36947","OBJECT_ID":"2026-040U","EPOCH":"2026-03-24T14:22:20.004096","MEAN_MOTION":15.75261829,"ECCENTRICITY":0.00028683,"INCLINATION":97.2844,"RA_OF_ASC_NODE":32.8039,"ARG_OF_PERICENTER":66.2225,"MEAN_ANOMALY":293.934,"EPHEMERIS_TYPE":0,"CLASSIFICATION_TYPE":"U","NORAD_CAT_ID":68033,"ELEMENT_SET_NO":999,"REV_AT_EPOCH":370,"BSTAR":0.001081455,"MEAN_MOTION_DOT":0.00164857,"MEAN_MOTION_DDOT":0},{"OBJECT_NAME":"STARLINK-36939","OBJECT_ID":"2026-040V","EPOCH":"2026-03-24T14:18:16.251552","MEAN_MOTION":15.75292251,"ECCENTRICITY":0.00031212,"INCLINATION":97.2841,"RA_OF_ASC_NODE":32.8093,"ARG_OF_PERICENTER":75.2204,"MEAN_ANOMALY":284.9407,"EPHEMERIS_TYPE":0,"CLASSIFICATION_TYPE":"U","NORAD_CAT_ID":68034,"ELEMENT_SET_NO":999,"REV_AT_EPOCH":370,"BSTAR":0.0016957366,"MEAN_MOTION_DOT":0.00261891,"MEAN_MOTION_DDOT":0},{"OBJECT_NAME":"STARLINK-36943","OBJECT_ID":"2026-040W","EPOCH":"2026-03-24T22:00:00.999936","MEAN_MOTION":15.75203878,"ECCENTRICITY":0.00017927,"INCLINATION":97.2848,"RA_OF_ASC_NODE":33.1525,"ARG_OF_PERICENTER":121.0782,"MEAN_ANOMALY":262.178,"EPHEMERIS_TYPE":0,"CLASSIFICATION_TYPE":"U","NORAD_CAT_ID":68035,"ELEMENT_SET_NO":999,"REV_AT_EPOCH":492,"BSTAR":-8.7842093e-5,"MEAN_MOTION_DOT":-0.0001322,"MEAN_MOTION_DDOT":0},{"OBJECT_NAME":"STARLINK-36906","OBJECT_ID":"2026-040X","EPOCH":"2026-03-24T18:53:43.196928","MEAN_MOTION":15.75358156,"ECCENTRICITY":0.00054787,"INCLINATION":97.2837,"RA_OF_ASC_NODE":33.0086,"ARG_OF_PERICENTER":78.2266,"MEAN_ANOMALY":281.9614,"EPHEMERIS_TYPE":0,"CLASSIFICATION_TYPE":"U","NORAD_CAT_ID":68036,"ELEMENT_SET_NO":999,"REV_AT_EPOCH":373,"BSTAR":0.0020407292,"MEAN_MOTION_DOT":0.0031833,"MEAN_MOTION_DDOT":0},{"OBJECT_NAME":"STARLINK-36388","OBJECT_ID":"2026-040Y","EPOCH":"2026-03-24T09:42:48.578688","MEAN_MOTION":15.75259315,"ECCENTRICITY":0.00018584,"INCLINATION":97.2848,"RA_OF_ASC_NODE":32.609,"ARG_OF_PERICENTER":94.2584,"MEAN_ANOMALY":265.8893,"EPHEMERIS_TYPE":0,"CLASSIFICATION_TYPE":"U","NORAD_CAT_ID":68037,"ELEMENT_SET_NO":999,"REV_AT_EPOCH":367,"BSTAR":0.0019246505,"MEAN_MOTION_DOT":0.00298087,"MEAN_MOTION_DDOT":0},{"OBJECT_NAME":"STARLINK-36895","OBJECT_ID":"2026-040Z","EPOCH":"2026-03-24T18:54:44.202240","MEAN_MOTION":15.7538038,"ECCENTRICITY":0.00056759,"INCLINATION":97.2835,"RA_OF_ASC_NODE":33.0049,"ARG_OF_PERICENTER":85.7919,"MEAN_ANOMALY":274.3995,"EPHEMERIS_TYPE":0,"CLASSIFICATION_TYPE":"U","NORAD_CAT_ID":68038,"ELEMENT_SET_NO":999,"REV_AT_EPOCH":373,"BSTAR":0.0022395097,"MEAN_MOTION_DOT":0.00351045,"MEAN_MOTION_DDOT":0},{"OBJECT_NAME":"STARLINK-36373","OBJECT_ID":"2026-040AA","EPOCH":"2026-03-24T18:55:45.226560","MEAN_MOTION":15.75359609,"ECCENTRICITY":0.00054697,"INCLINATION":97.283,"RA_OF_ASC_NODE":33.0041,"ARG_OF_PERICENTER":72.1591,"MEAN_ANOMALY":288.0271,"EPHEMERIS_TYPE":0,"CLASSIFICATION_TYPE":"U","NORAD_CAT_ID":68039,"ELEMENT_SET_NO":999,"REV_AT_EPOCH":373,"BSTAR":0.0021000051,"MEAN_MOTION_DOT":0.0032797,"MEAN_MOTION_DDOT":0},{"OBJECT_NAME":"STARLINK-36711","OBJECT_ID":"2026-041A","EPOCH":"2026-03-24T22:24:03.486816","MEAN_MOTION":15.75256163,"ECCENTRICITY":4.935e-5,"INCLINATION":53.1585,"RA_OF_ASC_NODE":346.1696,"ARG_OF_PERICENTER":114.2015,"MEAN_ANOMALY":245.9057,"EPHEMERIS_TYPE":0,"CLASSIFICATION_TYPE":"U","NORAD_CAT_ID":68040,"ELEMENT_SET_NO":999,"REV_AT_EPOCH":362,"BSTAR":0.0014985906,"MEAN_MOTION_DOT":0.00235776,"MEAN_MOTION_DDOT":0},{"OBJECT_NAME":"STARLINK-36825","OBJECT_ID":"2026-041B","EPOCH":"2026-03-24T21:29:45.304800","MEAN_MOTION":15.81020206,"ECCENTRICITY":0.00012098,"INCLINATION":53.1587,"RA_OF_ASC_NODE":345.9182,"ARG_OF_PERICENTER":148.2063,"MEAN_ANOMALY":211.9033,"EPHEMERIS_TYPE":0,"CLASSIFICATION_TYPE":"U","NORAD_CAT_ID":68041,"ELEMENT_SET_NO":999,"REV_AT_EPOCH":362,"BSTAR":0.0022335619,"MEAN_MOTION_DOT":0.00468053,"MEAN_MOTION_DDOT":0},{"OBJECT_NAME":"STARLINK-36925","OBJECT_ID":"2026-041C","EPOCH":"2026-03-24T22:24:31.965120","MEAN_MOTION":15.75256108,"ECCENTRICITY":6.917e-5,"INCLINATION":53.1587,"RA_OF_ASC_NODE":346.1713,"ARG_OF_PERICENTER":92.5857,"MEAN_ANOMALY":267.5242,"EPHEMERIS_TYPE":0,"CLASSIFICATION_TYPE":"U","NORAD_CAT_ID":68042,"ELEMENT_SET_NO":999,"REV_AT_EPOCH":362,"BSTAR":0.0014448383,"MEAN_MOTION_DOT":0.00227055,"MEAN_MOTION_DDOT":0},{"OBJECT_NAME":"STARLINK-36902","OBJECT_ID":"2026-041D","EPOCH":"2026-03-24T22:59:42.703296","MEAN_MOTION":15.80889848,"ECCENTRICITY":0.00018148,"INCLINATION":53.1584,"RA_OF_ASC_NODE":345.5979,"ARG_OF_PERICENTER":15.5493,"MEAN_ANOMALY":344.5585,"EPHEMERIS_TYPE":0,"CLASSIFICATION_TYPE":"U","NORAD_CAT_ID":68043,"ELEMENT_SET_NO":999,"REV_AT_EPOCH":363,"BSTAR":0.001249351,"MEAN_MOTION_DOT":0.00253454,"MEAN_MOTION_DDOT":0},{"OBJECT_NAME":"STARLINK-36966","OBJECT_ID":"2026-041E","EPOCH":"2026-03-24T22:17:59.845632","MEAN_MOTION":15.75600689,"ECCENTRICITY":0.0001129,"INCLINATION":53.1591,"RA_OF_ASC_NODE":346.1412,"ARG_OF_PERICENTER":233.059,"MEAN_ANOMALY":127.0327,"EPHEMERIS_TYPE":0,"CLASSIFICATION_TYPE":"U","NORAD_CAT_ID":68044,"ELEMENT_SET_NO":999,"REV_AT_EPOCH":362,"BSTAR":0.0026625642,"MEAN_MOTION_DOT":0.00436094,"MEAN_MOTION_DDOT":0},{"OBJECT_NAME":"STARLINK-36864","OBJECT_ID":"2026-041F","EPOCH":"2026-03-24T23:48:53.038656","MEAN_MOTION":15.75281183,"ECCENTRICITY":8.926e-5,"INCLINATION":53.1599,"RA_OF_ASC_NODE":345.8248,"ARG_OF_PERICENTER":63.1015,"MEAN_ANOMALY":297.0097,"EPHEMERIS_TYPE":0,"CLASSIFICATION_TYPE":"U","NORAD_CAT_ID":68045,"ELEMENT_SET_NO":999,"REV_AT_EPOCH":363,"BSTAR":0.0011418797,"MEAN_MOTION_DOT":0.00178466,"MEAN_MOTION_DDOT":0},{"OBJECT_NAME":"STARLINK-36321","OBJECT_ID":"2026-041G","EPOCH":"2026-03-24T22:00:00.999936","MEAN_MOTION":15.75278913,"ECCENTRICITY":0.00010054,"INCLINATION":53.1583,"RA_OF_ASC_NODE":345.8845,"ARG_OF_PERICENTER":100.9992,"MEAN_ANOMALY":344.631,"EPHEMERIS_TYPE":0,"CLASSIFICATION_TYPE":"U","NORAD_CAT_ID":68046,"ELEMENT_SET_NO":999,"REV_AT_EPOCH":482,"BSTAR":-0.00050626051,"MEAN_MOTION_DOT":-0.00077667,"MEAN_MOTION_DDOT":0}]
